ONEWEB-0504             
1 54122U 22138K   25021.59235007  .00000014  00000+0  31913-5 0  9997
2 54122  87.9143  46.6678 0001416  96.2228 263.9066 13.19727269109353
ONEWEB-0505             
1 54123U 22138L   25021.58918431  .00000018  00000+0  11910-4 0  9994
2 54123  87.9143  46.6603 0001385 112.4781 247.6499 13.19727644109336
ONEWEB-0506             
1 54124U 22138M   25021.56391619 -.00000217  00000+0 -57491-3 0  9992
2 54124  87.9143  46.6622 0001692  99.8190 260.3134 13.19724508109324
ONEWEB-0507             
1 54125U 22138N   25021.58444603 -.00000155  00000+0 -41907-3 0  9993
2 54125  87.9152  46.6979 0001725 102.0829 258.0497 13.19726648109371
ONEWEB-0508             
1 54126U 22138P   25021.58129388 -.00000010  00000+0 -56808-4 0  9991
2 54126  87.9148  46.6859 0001791 108.2550 251.8778 13.19723346109359
ONEWEB-0509             
1 54127U 22138Q   25021.55602972  .00000053  00000+0  99926-4 0  9997
2 54127  87.9142  46.6627 0001694  96.2494 263.8831 13.19727941110194
ONEWEB-0510             
1 54128U 22138R   25021.47011721  .00000087  00000+0  18309-3 0  9997
2 54128  87.9258  16.2431 0002089  87.6195 272.5178 13.20773927111739
ONEWEB-0511             
1 54129U 22138S   25021.62867662 -.00000214  00000+0 -56651-3 0  9994
2 54129  87.9140  46.6530 0001500  86.9967 273.1337 13.19724943110233
